STARLINK-3190           
1 49766U 21115AU  26068.45620761 -.00001128  00000+0 -52808-4 0  9995
2 49766  53.2153 140.1784 0001390  86.6291 273.4860 15.08838372235648
STARLINK-5895           
1 55964U 23037BC  26068.93316413  .00010921  00000+0  72850-3 0  9993
2 55964  69.9972 260.0280 0004986 264.4993  95.5602 15.07243555164606
